{
  "norad_id": 48799,
  "name": "ONEWEB-0225",
  "history": [
    {
      "epoch": "2026-03-28T21:27:35.075808",
      "apogee_km": 1203.5124912369283,
      "perigee_km": 1200.0292203808694,
      "latitude_deg": 22.028000405770157,
      "longitude_deg": -134.26102688000537,
      "semi_major_axis_km": 7579.907855808899,
      "eccentricity": 0.00022977,
      "inclination_deg": 87.8927,
      "raan_deg": 275.226,
      "arg_perigee_deg": 98.1898,
      "mean_anomaly_deg": 261.9493,
      "mean_motion_rev_day": 13.15548527
    },
    {
      "epoch": "2026-03-29T01:06:37.694304",
      "apogee_km": 1203.5232932126391,
      "perigee_km": 1200.006218797852,
      "latitude_deg": -70.11141719995067,
      "longitude_deg": -119.6581174400635,
      "semi_major_axis_km": 7579.901756005245,
      "eccentricity": 0.000232,
      "inclination_deg": 87.8928,
      "raan_deg": 275.1956,
      "arg_perigee_deg": 98.1329,
      "mean_anomaly_deg": 262.0064,
      "mean_motion_rev_day": 13.15550115
    }
  ]
}